<?xml version="1.0" encoding="UTF-8"?>
<ndm xmlns:xsi="http://www.w3.org/2001/XMLSchema-instance" xsi:noNamespaceSchemaLocation="https://sanaregistry.org/r/ndmxml_unqualified/ndmxml-2.0.0-master-2.0.xsd">
<omm id="CCSDS_OMM_VERS" version="2.0">
<header><CREATION_DATE/><ORIGINATOR/></header><body><segment><metadata><OBJECT_NAME>ORBCOMM FM33</OBJECT_NAME><OBJECT_ID>1999-065D</OBJECT_ID><CENTER_NAME>EARTH</CENTER_NAME><REF_FRAME>TEME</REF_FRAME><TIME_SYSTEM>UTC</TIME_SYSTEM><MEAN_ELEMENT_THEORY>SGP4</MEAN_ELEMENT_THEORY></metadata><data><meanElements><EPOCH>2024-09-30T08:53:35.311776</EPOCH><MEAN_MOTION>14.38453121</MEAN_MOTION><ECCENTRICITY>.0008072</ECCENTRICITY><INCLINATION>45.0274</INCLINATION><RA_OF_ASC_NODE>152.9601</RA_OF_ASC_NODE><ARG_OF_PERICENTER>191.3837</ARG_OF_PERICENTER><MEAN_ANOMALY>168.6830</MEAN_ANOMALY></meanElements><tleParameters><EPHEMERIS_TYPE>0</EPHEMERIS_TYPE><CLASSIFICATION_TYPE>U</CLASSIFICATION_TYPE><NORAD_CAT_ID>25983</NORAD_CAT_ID><ELEMENT_SET_NO>999</ELEMENT_SET_NO><REV_AT_EPOCH>29863</REV_AT_EPOCH><BSTAR>.13476E-2</BSTAR><MEAN_MOTION_DOT>.4013E-4</MEAN_MOTION_DOT><MEAN_MOTION_DDOT>0</MEAN_MOTION_DDOT></tleParameters></data></segment></body></omm>
<omm id="CCSDS_OMM_VERS" version="2.0">
<header><CREATION_DATE/><ORIGINATOR/></header><body><segment><metadata><OBJECT_NAME>ORBCOMM FM36</OBJECT_NAME><OBJECT_ID>1999-065E</OBJECT_ID><CENTER_NAME>EARTH</CENTER_NAME><REF_FRAME>TEME</REF_FRAME><TIME_SYSTEM>UTC</TIME_SYSTEM><MEAN_ELEMENT_THEORY>SGP4</MEAN_ELEMENT_THEORY></metadata><data><meanElements><EPOCH>2024-09-30T08:06:53.890272</EPOCH><MEAN_MOTION>14.36460377</MEAN_MOTION><ECCENTRICITY>.000311</ECCENTRICITY><INCLINATION>45.0377</INCLINATION><RA_OF_ASC_NODE>241.0128</RA_OF_ASC_NODE><ARG_OF_PERICENTER>38.1273</ARG_OF_PERICENTER><MEAN_ANOMALY>321.9795</MEAN_ANOMALY></meanElements><tleParameters><EPHEMERIS_TYPE>0</EPHEMERIS_TYPE><CLASSIFICATION_TYPE>U</CLASSIFICATION_TYPE><NORAD_CAT_ID>25984</NORAD_CAT_ID><ELEMENT_SET_NO>999</ELEMENT_SET_NO><REV_AT_EPOCH>29703</REV_AT_EPOCH><BSTAR>.18377E-2</BSTAR><MEAN_MOTION_DOT>.53E-4</MEAN_MOTION_DOT><MEAN_MOTION_DDOT>0</MEAN_MOTION_DDOT></tleParameters></data></segment></body></omm>
<omm id="CCSDS_OMM_VERS" version="2.0">
<header><CREATION_DATE/><ORIGINATOR/></header><body><segment><metadata><OBJECT_NAME>ORBCOMM FM35</OBJECT_NAME><OBJECT_ID>1999-065F</OBJECT_ID><CENTER_NAME>EARTH</CENTER_NAME><REF_FRAME>TEME</REF_FRAME><TIME_SYSTEM>UTC</TIME_SYSTEM><MEAN_ELEMENT_THEORY>SGP4</MEAN_ELEMENT_THEORY></metadata><data><meanElements><EPOCH>2024-09-30T08:41:48.189984</EPOCH><MEAN_MOTION>14.35798323</MEAN_MOTION><ECCENTRICITY>.0002364</ECCENTRICITY><INCLINATION>45.0381</INCLINATION><RA_OF_ASC_NODE>244.1189</RA_OF_ASC_NODE><ARG_OF_PERICENTER>209.6225</ARG_OF_PERICENTER><MEAN_ANOMALY>150.4489</MEAN_ANOMALY></meanElements><tleParameters><EPHEMERIS_TYPE>0</EPHEMERIS_TYPE><CLASSIFICATION_TYPE>U</CLASSIFICATION_TYPE><NORAD_CAT_ID>25985</NORAD_CAT_ID><ELEMENT_SET_NO>999</ELEMENT_SET_NO><REV_AT_EPOCH>29742</REV_AT_EPOCH><BSTAR>.12165E-2</BSTAR><MEAN_MOTION_DOT>.3412E-4</MEAN_MOTION_DOT><MEAN_MOTION_DDOT>0</MEAN_MOTION_DDOT></tleParameters></data></segment></body></omm>
<omm id="CCSDS_OMM_VERS" version="2.0">
<header><CREATION_DATE/><ORIGINATOR/></header><body><segment><metadata><OBJECT_NAME>ORBCOMM FM34</OBJECT_NAME><OBJECT_ID>1999-065G</OBJECT_ID><CENTER_NAME>EARTH</CENTER_NAME><REF_FRAME>TEME</REF_FRAME><TIME_SYSTEM>UTC</TIME_SYSTEM><MEAN_ELEMENT_THEORY>SGP4</MEAN_ELEMENT_THEORY></metadata><data><meanElements><EPOCH>2024-09-30T08:01:54.168672</EPOCH><MEAN_MOTION>14.35803051</MEAN_MOTION><ECCENTRICITY>.0001777</ECCENTRICITY><INCLINATION>45.0374</INCLINATION><RA_OF_ASC_NODE>244.7992</RA_OF_ASC_NODE><ARG_OF_PERICENTER>107.1034</ARG_OF_PERICENTER><MEAN_ANOMALY>253.0009</MEAN_ANOMALY></meanElements><tleParameters><EPHEMERIS_TYPE>0</EPHEMERIS_TYPE><CLASSIFICATION_TYPE>U</CLASSIFICATION_TYPE><NORAD_CAT_ID>25986</NORAD_CAT_ID><ELEMENT_SET_NO>999</ELEMENT_SET_NO><REV_AT_EPOCH>29753</REV_AT_EPOCH><BSTAR>.15039E-2</BSTAR><MEAN_MOTION_DOT>.4253E-4</MEAN_MOTION_DOT><MEAN_MOTION_DDOT>0</MEAN_MOTION_DDOT></tleParameters></data></segment></body></omm>
<omm id="CCSDS_OMM_VERS" version="2.0">
<header><CREATION_DATE/><ORIGINATOR/></header><body><segment><metadata><OBJECT_NAME>ORBCOMM FM38</OBJECT_NAME><OBJECT_ID>2008-031A</OBJECT_ID><CENTER_NAME>EARTH</CENTER_NAME><REF_FRAME>TEME</REF_FRAME><TIME_SYSTEM>UTC</TIME_SYSTEM><MEAN_ELEMENT_THEORY>SGP4</MEAN_ELEMENT_THEORY></metadata><data><meanElements><EPOCH>2024-09-30T14:36:34.255584</EPOCH><MEAN_MOTION>14.78823503</MEAN_MOTION><ECCENTRICITY>.0004735</ECCENTRICITY><INCLINATION>48.4391</INCLINATION><RA_OF_ASC_NODE>110.2978</RA_OF_ASC_NODE><ARG_OF_PERICENTER>358.6348</ARG_OF_PERICENTER><MEAN_ANOMALY>1.4553</MEAN_ANOMALY></meanElements><tleParameters><EPHEMERIS_TYPE>0</EPHEMERIS_TYPE><CLASSIFICATION_TYPE>U</CLASSIFICATION_TYPE><NORAD_CAT_ID>33060</NORAD_CAT_ID><ELEMENT_SET_NO>999</ELEMENT_SET_NO><REV_AT_EPOCH>87629</REV_AT_EPOCH><BSTAR>.85517E-3</BSTAR><MEAN_MOTION_DOT>.6155E-4</MEAN_MOTION_DOT><MEAN_MOTION_DDOT>0</MEAN_MOTION_DDOT></tleParameters></data></segment></body></omm>
<omm id="CCSDS_OMM_VERS" version="2.0">
<header><CREATION_DATE/><ORIGINATOR/></header><body><segment><metadata><OBJECT_NAME>ORBCOMM FM41</OBJECT_NAME><OBJECT_ID>2008-031B</OBJECT_ID><CENTER_NAME>EARTH</CENTER_NAME><REF_FRAME>TEME</REF_FRAME><TIME_SYSTEM>UTC</TIME_SYSTEM><MEAN_ELEMENT_THEORY>SGP4</MEAN_ELEMENT_THEORY></metadata><data><meanElements><EPOCH>2024-09-30T14:55:12.834912</EPOCH><MEAN_MOTION>14.78527446</MEAN_MOTION><ECCENTRICITY>.0004117</ECCENTRICITY><INCLINATION>48.4424</INCLINATION><RA_OF_ASC_NODE>117.2031</RA_OF_ASC_NODE><ARG_OF_PERICENTER>341.7706</ARG_OF_PERICENTER><MEAN_ANOMALY>59.7495</MEAN_ANOMALY></meanElements><tleParameters><EPHEMERIS_TYPE>0</EPHEMERIS_TYPE><CLASSIFICATION_TYPE>U</CLASSIFICATION_TYPE><NORAD_CAT_ID>33061</NORAD_CAT_ID><ELEMENT_SET_NO>999</ELEMENT_SET_NO><REV_AT_EPOCH>87579</REV_AT_EPOCH><BSTAR>.80385E-3</BSTAR><MEAN_MOTION_DOT>.5732E-4</MEAN_MOTION_DOT><MEAN_MOTION_DDOT>0</MEAN_MOTION_DDOT></tleParameters></data></segment></body></omm>
<omm id="CCSDS_OMM_VERS" version="2.0">
<header><CREATION_DATE/><ORIGINATOR/></header><body><segment><metadata><OBJECT_NAME>ORBCOMM FM29</OBJECT_NAME><OBJECT_ID>2008-031C</OBJECT_ID><CENTER_NAME>EARTH</CENTER_NAME><REF_FRAME>TEME</REF_FRAME><TIME_SYSTEM>UTC</TIME_SYSTEM><MEAN_ELEMENT_THEORY>SGP4</MEAN_ELEMENT_THEORY></metadata><data><meanElements><EPOCH>2024-09-30T14:43:13.516032</EPOCH><MEAN_MOTION>14.78505595</MEAN_MOTION><ECCENTRICITY>.0005855</ECCENTRICITY><INCLINATION>48.4376</INCLINATION><RA_OF_ASC_NODE>125.2662</RA_OF_ASC_NODE><ARG_OF_PERICENTER>343.4434</ARG_OF_PERICENTER><MEAN_ANOMALY>50.6723</MEAN_ANOMALY></meanElements><tleParameters><EPHEMERIS_TYPE>0</EPHEMERIS_TYPE><CLASSIFICATION_TYPE>U</CLASSIFICATION_TYPE><NORAD_CAT_ID>33062</NORAD_CAT_ID><ELEMENT_SET_NO>999</ELEMENT_SET_NO><REV_AT_EPOCH>87570</REV_AT_EPOCH><BSTAR>.86051E-3</BSTAR><MEAN_MOTION_DOT>.6148E-4</MEAN_MOTION_DOT><MEAN_MOTION_DDOT>0</MEAN_MOTION_DDOT></tleParameters></data></segment></body></omm>
<omm id="CCSDS_OMM_VERS" version="2.0">
<header><CREATION_DATE/><ORIGINATOR/></header><body><segment><metadata><OBJECT_NAME>ORBCOMM FM39</OBJECT_NAME><OBJECT_ID>2008-031D</OBJECT_ID><CENTER_NAME>EARTH</CENTER_NAME><REF_FRAME>TEME</REF_FRAME><TIME_SYSTEM>UTC</TIME_SYSTEM><MEAN_ELEMENT_THEORY>SGP4</MEAN_ELEMENT_THEORY></metadata><data><meanElements><EPOCH>2024-09-30T08:06:23.533632</EPOCH><MEAN_MOTION>14.77352675</MEAN_MOTION><ECCENTRICITY>.0007031</ECCENTRICITY><INCLINATION>48.4398</INCLINATION><RA_OF_ASC_NODE>148.2454</RA_OF_ASC_NODE><ARG_OF_PERICENTER>318.2357</ARG_OF_PERICENTER><MEAN_ANOMALY>41.8019</MEAN_ANOMALY></meanElements><tleParameters><EPHEMERIS_TYPE>0</EPHEMERIS_TYPE><CLASSIFICATION_TYPE>U</CLASSIFICATION_TYPE><NORAD_CAT_ID>33063</NORAD_CAT_ID><ELEMENT_SET_NO>999</ELEMENT_SET_NO><REV_AT_EPOCH>87534</REV_AT_EPOCH><BSTAR>.84385E-3</BSTAR><MEAN_MOTION_DOT>.586E-4</MEAN_MOTION_DOT><MEAN_MOTION_DDOT>0</MEAN_MOTION_DDOT></tleParameters></data></segment></body></omm>

</ndm>
