ORBCOMM FM33            
1 25983U 99065D   24274.37054759  .00004013  00000+0  13476-2 0  9995
2 25983  45.0274 152.9601 0008072 191.3837 168.6830 14.38453121298636
ORBCOMM FM36            
1 25984U 99065E   24274.33812373  .00005300  00000+0  18377-2 0  9991
2 25984  45.0377 241.0128 0003110  38.1273 321.9795 14.36460377297031
ORBCOMM FM35            
1 25985U 99065F   24274.36236331  .00003412  00000+0  12165-2 0  9990
2 25985  45.0381 244.1189 0002364 209.6225 150.4489 14.35798323297422
ORBCOMM FM34            
1 25986U 99065G   24274.33465473  .00004253  00000+0  15039-2 0  9996
2 25986  45.0374 244.7992 0001777 107.1034 253.0009 14.35803051297535
ORBCOMM FM38            
1 33060U 08031A   24274.60872981  .00006155  00000+0  85517-3 0  9999
2 33060  48.4391 110.2978 0004735 358.6348   1.4553 14.78823503876298
ORBCOMM FM41            
1 33061U 08031B   24274.62167633  .00005732  00000+0  80385-3 0  9991
2 33061  48.4424 117.2031 0004117 341.7706  59.7495 14.78527446875790
ORBCOMM FM29            
1 33062U 08031C   24274.61335088  .00006148  00000+0  86051-3 0  9990
2 33062  48.4376 125.2662 0005855 343.4434  50.6723 14.78505595875709
ORBCOMM FM39            
1 33063U 08031D   24274.33777238  .00005860  00000+0  84385-3 0  9995
2 33063  48.4398 148.2454 0007031 318.2357  41.8019 14.77352675875348
